{"type": "FeatureCollection", "features": [ {"type": "Feature", "properties": {"norad_id": 40115, "name": "WORLDVIEW-3 (WV-3)", "group": "resource", "lat": -76.43236802950443, "lon": -158.75408219801702, "alt_km": 617.9768993973994, "timestamp": "2025-12-09T20:37:08.938799+00:00", "meta": {"OBJECT_NAME": "WORLDVIEW-3 (WV-3)", "OBJECT_ID": "2014-048A", "EPOCH": "2025-12-09T14:36:26.920224", "MEAN_MOTION": 14.85500269, "ECCENTRICITY": 0.00045136, "INCLINATION": 97.8619, "RA_OF_ASC_NODE": 55.9283, "ARG_OF_PERICENTER": 195.4086, "MEAN_ANOMALY": 164.6992, "EPHEMERIS_TYPE": 0, "CLASSIFICATION_TYPE": "U", "NORAD_CAT_ID": 40115, "ELEMENT_SET_NO": 999, "REV_AT_EPOCH": 61377, "BSTAR": 0.00024559787, "MEAN_MOTION_DOT": 2.067e-05, "MEAN_MOTION_DDOT": 0}, "tle": {"line1": "1 40115U 14048A   25343.60864491  .00002067  00000+0  24560-3 0  9997", "line2": "2 40115  97.8619  55.9283 0004513 195.4086 164.6992 14.85500269613772"}}, "geometry": {"type": "Point", "coordinates": [-158.75408219801702, -76.43236802950443]}}, {"type": "Feature", "properties": {"norad_id": 40118, "name": "GAOFEN-2", "group": "resource", "lat": 52.22869168374464, "lon": -126.46936986319338, "alt_km": 616.7080428247464, "timestamp": "2025-12-09T20:37:08.938810+00:00", "meta": {"OBJECT_NAME": "GAOFEN-2", "OBJECT_ID": "2014-049A", "EPOCH": "2025-12-09T15:10:56.089632", "MEAN_MOTION": 14.8059978, "ECCENTRICITY": 0.00084254, "INCLINATION": 98.0384, "RA_OF_ASC_NODE": 42.7955, "ARG_OF_PERICENTER": 121.202, "MEAN_ANOMALY": 239.0019, "EPHEMERIS_TYPE": 0, "CLASSIFICATION_TYPE": "U", "NORAD_CAT_ID": 40118, "ELEMENT_SET_NO": 999, "REV_AT_EPOCH": 61118, "BSTAR": 0.00014198392, "MEAN_MOTION_DOT": 1.036e-05, "MEAN_MOTION_DDOT": 0}, "tle": {"line1": "1 40118U 14049A   25343.63259363  .00001036  00000+0  14198-3 0  9991", "line2": "2 40118  98.0384  42.7955 0008425 121.2020 239.0019 14.80599780611189"}}, "geometry": {"type": "Point", "coordinates": [-126.46936986319338, 52.22869168374464]}}, {"type": "Feature", "properties": {"norad_id": 40143, "name": "YAOGAN-21", "group": "resource", "lat": 4.636481791721856, "lon": 26.711489843998514, "alt_km": 492.5096151929756, "timestamp": "2025-12-09T20:37:08.938820+00:00", "meta": {"OBJECT_NAME": "YAOGAN-21", "OBJECT_ID": "2014-053A", "EPOCH": "2025-12-09T14:17:38.067072", "MEAN_MOTION": 15.23623426, "ECCENTRICITY": 0.00099824, "INCLINATION": 97.1754, "RA_OF_ASC_NODE": 27.0448, "ARG_OF_PERICENTER": 50.5511, "MEAN_ANOMALY": 309.6608, "EPHEMERIS_TYPE": 0, "CLASSIFICATION_TYPE": "U", "NORAD_CAT_ID": 40143, "ELEMENT_SET_NO": 999, "REV_AT_EPOCH": 62606, "BSTAR": 0.00046718457, "MEAN_MOTION_DOT": 0.00011145, "MEAN_MOTION_DDOT": 0}, "tle": {"line1": "1 40143U 14053A   25343.59557948  .00011145  00000+0  46718-3 0  9994", "line2": "2 40143  97.1754  27.0448 0009982  50.5511 309.6608 15.23623426626063"}}, "geometry": {"type": "Point", "coordinates": [26.711489843998514, 4.636481791721856]}}, {"type": "Feature", "properties": {"norad_id": 40275, "name": "YAOGAN-22", "group": "resource", "lat": -14.293247265631791, "lon": -55.534041977742135, "alt_km": 1204.048493863047, "timestamp": "2025-12-09T20:37:08.938831+00:00", "meta": {"OBJECT_NAME": "YAOGAN-22", "OBJECT_ID": "2014-063A", "EPOCH": "2025-12-09T15:58:57.912384", "MEAN_MOTION": 13.15522508, "ECCENTRICITY": 0.0005932, "INCLINATION": 100.742, "RA_OF_ASC_NODE": 127.0421, "ARG_OF_PERICENTER": 255.7153, "MEAN_ANOMALY": 104.33, "EPHEMERIS_TYPE": 0, "CLASSIFICATION_TYPE": "U", "NORAD_CAT_ID": 40275, "ELEMENT_SET_NO": 999, "REV_AT_EPOCH": 53489, "BSTAR": 0.00012180864, "MEAN_MOTION_DOT": -1e-08, "MEAN_MOTION_DDOT": 0}, "tle": {"line1": "1 40275U 14063A   25343.66594806 -.00000001  00000+0  12181-3 0  9990", "line2": "2 40275 100.7420 127.0421 0005932 255.7153 104.3300 13.15522508534890"}}, "geometry": {"type": "Point", "coordinates": [-55.534041977742135, -14.293247265631791]}}, {"type": "Feature", "properties": {"norad_id": 40298, "name": "ASNARO", "group": "resource", "lat": 80.39572370887964, "lon": -70.27165798823263, "alt_km": 497.1576247867606, "timestamp": "2025-12-09T20:37:08.938841+00:00", "meta": {"OBJECT_NAME": "ASNARO", "OBJECT_ID": "2014-070A", "EPOCH": "2025-12-09T15:27:20.827584", "MEAN_MOTION": 15.19391452, "ECCENTRICITY": 0.00053775, "INCLINATION": 97.3649, "RA_OF_ASC_NODE": 59.6663, "ARG_OF_PERICENTER": 129.7889, "MEAN_ANOMALY": 230.382, "EPHEMERIS_TYPE": 0, "CLASSIFICATION_TYPE": "U", "NORAD_CAT_ID": 40298, "ELEMENT_SET_NO": 999, "REV_AT_EPOCH": 61522, "BSTAR": 0.00074037541, "MEAN_MOTION_DOT": 0.00015628, "MEAN_MOTION_DDOT": 0}, "tle": {"line1": "1 40298U 14070A   25343.64399106  .00015628  00000+0  74038-3 0  9996", "line2": "2 40298  97.3649  59.6663 0005377 129.7889 230.3820 15.19391452615228"}}, "geometry": {"type": "Point", "coordinates": [-70.27165798823263, 80.39572370887964]}}, {"type": "Feature", "properties": {"norad_id": 40310, "name": "YAOGAN-24", "group": "resource", "lat": 23.069058963298865, "lon": -61.5757303827281, "alt_km": 630.9458647107713, "timestamp": "2025-12-09T20:37:08.938851+00:00", "meta": {"OBJECT_NAME": "YAOGAN-24", "OBJECT_ID": "2014-072A", "EPOCH": "2025-12-09T15:01:56.062848", "MEAN_MOTION": 14.76167747, "ECCENTRICITY": 0.00145978, "INCLINATION": 98.1225, "RA_OF_ASC_NODE": 114.7031, "ARG_OF_PERICENTER": 147.3987, "MEAN_ANOMALY": 212.8126, "EPHEMERIS_TYPE": 0, "CLASSIFICATION_TYPE": "U", "NORAD_CAT_ID": 40310, "ELEMENT_SET_NO": 999, "REV_AT_EPOCH": 59575, "BSTAR": 0.00025519317, "MEAN_MOTION_DOT": 1.714e-05, "MEAN_MOTION_DDOT": 0}, "tle": {"line1": "1 40310U 14072A   25343.62634332  .00001714  00000+0  25519-3 0  9995", "line2": "2 40310  98.1225 114.7031 0014597 147.3987 212.8126 14.76167747595752"}}, "geometry": {"type": "Point", "coordinates": [-61.5757303827281, 23.069058963298865]}}, {"type": "Feature", "properties": {"norad_id": 40336, "name": "CBERS 4", "group": "resource", "lat": -41.52008792227648, "lon": 49.428264376608595, "alt_km": 780.9365830560264, "timestamp": "2025-12-09T20:37:08.938861+00:00", "meta": {"OBJECT_NAME": "CBERS 4", "OBJECT_ID": "2014-079A", "EPOCH": "2025-12-09T15:47:46.499712", "MEAN_MOTION": 14.35516076, "ECCENTRICITY": 0.00015725, "INCLINATION": 98.3308, "RA_OF_ASC_NODE": 41.7803, "ARG_OF_PERICENTER": 114.6579, "MEAN_ANOMALY": 245.4771, "EPHEMERIS_TYPE": 0, "CLASSIFICATION_TYPE": "U", "NORAD_CAT_ID": 40336, "ELEMENT_SET_NO": 999, "REV_AT_EPOCH": 57676, "BSTAR": 9.9715748e-05, "MEAN_MOTION_DOT": 2.45e-06, "MEAN_MOTION_DDOT": 0}, "tle": {"line1": "1 40336U 14079A   25343.65817708  .00000245  00000+0  99716-4 0  9992", "line2": "2 40336  98.3308  41.7803 0001572 114.6579 245.4771 14.35516076576769"}}, "geometry": {"type": "Point", "coordinates": [49.428264376608595, -41.52008792227648]}}, {"type": "Feature", "properties": {"norad_id": 40362, "name": "YAOGAN-26", "group": "resource", "lat": -79.06339550867344, "lon": 24.56126452876354, "alt_km": 458.3000642912266, "timestamp": "2025-12-09T20:37:08.938872+00:00", "meta": {"OBJECT_NAME": "YAOGAN-26", "OBJECT_ID": "2014-088A", "EPOCH": "2025-12-09T14:43:54.844608", "MEAN_MOTION": 15.39110633, "ECCENTRICITY": 0.00066979, "INCLINATION": 97.0645, "RA_OF_ASC_NODE": 344.399, "ARG_OF_PERICENTER": 38.1762, "MEAN_ANOMALY": 321.9958, "EPHEMERIS_TYPE": 0, "CLASSIFICATION_TYPE": "U", "NORAD_CAT_ID": 40362, "ELEMENT_SET_NO": 999, "REV_AT_EPOCH": 60846, "BSTAR": 0.00027423163, "MEAN_MOTION_DOT": 0.00010559, "MEAN_MOTION_DDOT": 0}, "tle": {"line1": "1 40362U 14088A   25343.61382922  .00010559  00000+0  27423-3 0  9996", "line2": "2 40362  97.0645 344.3990 0006697  38.1762 321.9958 15.39110633608468"}}, "geometry": {"type": "Point", "coordinates": [24.56126452876354, -79.06339550867344]}}, {"type": "Feature", "properties": {"norad_id": 40376, "name": "SMAP", "group": "resource", "lat": -52.067365497585335, "lon": 158.0570690023887, "alt_km": 690.0642015321064, "timestamp": "2025-12-09T20:37:08.938882+00:00", "meta": {"OBJECT_NAME": "SMAP", "OBJECT_ID": "2015-003A", "EPOCH": "2025-12-09T14:38:08.346912", "MEAN_MOTION": 14.63339226, "ECCENTRICITY": 0.00012066, "INCLINATION": 98.1291, "RA_OF_ASC_NODE": 348.3787, "ARG_OF_PERICENTER": 88.7618, "MEAN_ANOMALY": 271.3722, "EPHEMERIS_TYPE": 0, "CLASSIFICATION_TYPE": "U", "NORAD_CAT_ID": 40376, "ELEMENT_SET_NO": 999, "REV_AT_EPOCH": 57989, "BSTAR": 0.00020517611, "MEAN_MOTION_DOT": 1.013e-05, "MEAN_MOTION_DDOT": 0}, "tle": {"line1": "1 40376U 15003A   25343.60981883  .00001013  00000+0  20518-3 0  9992", "line2": "2 40376  98.1291 348.3787 0001206  88.7618 271.3722 14.63339226579890"}}, "geometry": {"type": "Point", "coordinates": [158.0570690023887, -52.067365497585335]}}, {"type": "Feature", "properties": {"norad_id": 40536, "name": "KOMPSAT-3A", "group": "resource", "lat": 9.010530878948046, "lon": 139.27269982190415, "alt_km": 434.3903712757774, "timestamp": "2025-12-09T20:37:08.938892+00:00", "meta": {"OBJECT_NAME": "KOMPSAT-3A", "OBJECT_ID": "2015-014A", "EPOCH": "2025-12-09T15:12:54.239040", "MEAN_MOTION": 15.43766452, "ECCENTRICITY": 0.00045769, "INCLINATION": 97.6792, "RA_OF_ASC_NODE": 317.8091, "ARG_OF_PERICENTER": 133.1214, "MEAN_ANOMALY": 227.0416, "EPHEMERIS_TYPE": 0, "CLASSIFICATION_TYPE": "U", "NORAD_CAT_ID": 40536, "ELEMENT_SET_NO": 999, "REV_AT_EPOCH": 59247, "BSTAR": 0.00058762101, "MEAN_MOTION_DOT": 0.00026545, "MEAN_MOTION_DDOT": 0}, "tle": {"line1": "1 40536U 15014A   25343.63396110  .00026545  00000+0  58762-3 0  9997", "line2": "2 40536  97.6792 317.8091 0004576 133.1214 227.0416 15.43766452592478"}}, "geometry": {"type": "Point", "coordinates": [139.27269982190415, 9.010530878948046]}}]}